NORAD_CAT_ID,OBJECT_NAME,OBJECT_TYPE,EPOCH,MEAN_MOTION,ECCENTRICITY,INCLINATION,RA_OF_ASC_NODE,ARG_OF_PERICENTER,MEAN_ANOMALY,BSTAR,MEAN_MOTION_DOT,MEAN_MOTION_DDOT,TLE_LINE0,TLE_LINE1,TLE_LINE2,SEMIMAJOR_AXIS,PERIOD,APOGEE,PERIGEE,DECAYED
55315.0,STARLINK-4623,PAYLOAD,2024-03-22 06:02:39,14.98344285,0.000271,70.0019,33.3849,254.4942,105.5918,6.1837e-05,6.45e-06,0.0,0 STARLINK-4623,1 55315U 23010AY  24082.25184597  .00000645  00000-0  61837-4 0  9996,2 55315  70.0019  33.3849 0002710 254.4942 105.5918 14.98344285 65792,6950.149,96.106,573.897,570.13,0.0
55315.0,STARLINK-4623,PAYLOAD,2024-03-22 20:27:53,14.9832017,0.0002039,70.005,31.8693,273.3209,86.7717,0.0001969,2.257e-05,0.0,0 STARLINK-4623,1 55315U 23010AY  24082.85269867  .00002257  00000-0  19690-3 0  9996,2 55315  70.0050  31.8693 0002039 273.3209  86.7717 14.98320170 65599,6950.223,96.108,573.505,570.671,0.0
55315.0,STARLINK-4623,PAYLOAD,2024-03-22 22:04:01,14.98306817,0.0002461,70.0043,31.7011,252.6312,107.4578,0.0003008,3.496e-05,0.0,0 STARLINK-4623,1 55315U 23010AY  24082.91946181  .00003496  00000-0  30080-3 0  9996,2 55315  70.0043  31.7011 0002461 252.6312 107.4578 14.98306817 65899,6950.265,96.108,573.84,570.419,0.0
55315.0,STARLINK-4623,PAYLOAD,2024-03-23 04:28:34,14.98318573,0.000306,70.0014,31.0274,272.2144,87.8664,-1.6933e-05,-2.95e-06,0.0,0 STARLINK-4623,1 55315U 23010AY  24083.18650731 -.00000295  00000-0 -16933-4 0  9997,2 55315  70.0014  31.0274 0003060 272.2144  87.8664 14.98318573 65640,6950.228,96.108,574.22,569.966,0.0
55315.0,STARLINK-4623,PAYLOAD,2024-03-23 20:29:54,14.98330564,0.0003227,70.0016,29.3464,272.1385,87.9405,2.3281e-05,1.85e-06,0.0,0 STARLINK-4623,1 55315U 23010AY  24083.85409961  .00000185  00000-0  23281-4 0  9998,2 55315  70.0016  29.3464 0003227 272.1385  87.9405 14.98330564 65743,6950.191,96.107,574.299,569.813,0.0
55315.0,STARLINK-4623,PAYLOAD,2024-03-23 22:06:02,14.98328176,0.000336,70.002,29.175,269.8964,90.181,0.00011721,1.306e-05,0.0,0 STARLINK-4623,1 55315U 23010AY  24083.92085748  .00001306  00000-0  11721-3 0  9990,2 55315  70.0020  29.1750 0003360 269.8964  90.1810 14.98328176 66044,6950.199,96.107,574.399,569.728,0.0
55315.0,STARLINK-4623,PAYLOAD,2024-03-24 04:30:33,14.98349762,0.0002572,70.0023,28.5054,254.3888,105.6988,7.4933e-05,8.02e-06,0.0,0 STARLINK-4623,1 55315U 23010AY  24084.18788352  .00000802  00000-0  74933-4 0  9995,2 55315  70.0023  28.5054 0002572 254.3888 105.6988 14.98349762 65798,6950.132,96.106,573.784,570.209,0.0
55315.0,STARLINK-4623,PAYLOAD,2024-03-24 06:06:40,14.98353768,0.0002807,70.0018,28.3368,269.658,90.4257,0.00012561,1.407e-05,0.0,0 STARLINK-4623,1 55315U 23010AY  24084.25464004  .00001407  00000-0  12561-3 0  9998,2 55315  70.0018  28.3368 0002807 269.6580  90.4257 14.98353768 66092,6950.119,96.105,573.935,570.033,0.0
55315.0,STARLINK-4623,PAYLOAD,2024-03-24 20:31:56,14.9831082,0.000297,70.0018,26.8197,266.4903,93.5916,-5.332e-05,-7.29e-06,0.0,0 STARLINK-4623,1 55315U 23010AY  24084.85551174 -.00000729  00000-0 -53320-4 0  9996,2 55315  70.0018  26.8197 0002970 266.4903  93.5916 14.98310820 65895,6950.252,96.108,574.181,570.053,0.0
55315.0,STARLINK-4623,PAYLOAD,2024-03-24 22:08:04,14.9831334,0.0002675,70.0021,26.6522,269.2616,90.8236,-3.2281e-05,-4.78e-06,0.0,0 STARLINK-4623,1 55315U 23010AY  24084.92227093 -.00000478  00000-0 -32281-4 0  9998,2 55315  70.0021  26.6522 0002675 269.2616  90.8236 14.98313340 66192,6950.244,96.108,573.969,570.25,0.0
55315.0,STARLINK-4623,PAYLOAD,2024-03-25 06:08:44,14.98318525,0.0002781,70.002,25.8105,263.6711,96.4131,8.4732e-07,-8.3e-07,0.0,0 STARLINK-4623,1 55315U 23010AY  24085.25606903 -.00000083  00000-0  84732-6 0  9997,2 55315  70.0020  25.8105 0002781 263.6711  96.4131 14.98318525 65950,6950.228,96.108,574.026,570.161,0.0
55315.0,STARLINK-4623,PAYLOAD,2024-03-25 20:33:56,14.9836163,0.0002345,70.0021,24.2968,250.9578,109.1327,-0.00070672,-8.522e-05,0.0,0 STARLINK-4623,1 55315U 23010AY  24085.85690893 -.00008522  00000-0 -70672-3 0  9996,2 55315  70.0021  24.2968 0002345 250.9578 109.1327 14.98361630 66042,6950.095,96.105,573.59,570.33,0.0
55315.0,STARLINK-4623,PAYLOAD,2024-03-25 22:10:04,14.9836082,0.0002351,70.0021,24.1285,249.3931,110.6976,-0.00071058,-8.568e-05,0.0,0 STARLINK-4623,1 55315U 23010AY  24085.92366836 -.00008568  00000-0 -71058-3 0  9990,2 55315  70.0021  24.1285 0002351 249.3931 110.6976 14.98360820 66345,6950.098,96.105,573.597,570.329,0.0
55315.0,STARLINK-4623,PAYLOAD,2024-03-26 04:34:37,14.98330687,0.0002684,70.0021,23.4552,255.7976,104.2885,-0.00013026,-1.647e-05,0.0,0 STARLINK-4623,1 55315U 23010AY  24086.19070873 -.00001647  00000-0 -13026-3 0  9995,2 55315  70.0021  23.4552 0002684 255.7976 104.2885 14.98330687 66091,6950.191,96.107,573.921,570.19,0.0
55315.0,STARLINK-4623,PAYLOAD,2024-03-26 06:10:44,14.98358007,0.0002327,70.0022,23.2871,250.9692,109.1215,-0.0005781,-6.989e-05,0.0,0 STARLINK-4623,1 55315U 23010AY  24086.25746190 -.00006989  00000-0 -57810-3 0  9997,2 55315  70.0022  23.2871 0002327 250.9692 109.1215 14.98358007 66109,6950.106,96.105,573.589,570.354,0.0
55315.0,STARLINK-4623,PAYLOAD,2024-03-26 20:35:57,14.98325986,0.0003065,70.0012,21.7721,246.6811,113.4025,0.00013894,1.565e-05,0.0,0 STARLINK-4623,1 55315U 23010AY  24086.85830465  .00001565  00000-0  13894-3 0  9999,2 55315  70.0012  21.7721 0003065 246.6811 113.4025 14.98325986 66196,6950.205,96.107,574.201,569.94,0.0
55315.0,STARLINK-4623,PAYLOAD,2024-03-26 22:12:05,14.98324724,0.0002905,70.0015,21.6024,253.1974,106.8866,0.00016883,1.922e-05,0.0,0 STARLINK-4623,1 55315U 23010AY  24086.92506476  .00001922  00000-0  16883-3 0  9997,2 55315  70.0015  21.6024 0002905 253.1974 106.8866 14.98324724 66490,6950.209,96.107,574.093,570.055,0.0
55315.0,STARLINK-4623,PAYLOAD,2024-03-27 12:37:18,14.98326739,0.0002918,70.0024,20.0886,262.1453,97.9375,5.9932e-05,6.22e-06,0.0,0 STARLINK-4623,1 55315U 23010AY  24087.52590715  .00000622  00000-0  59932-4 0  9992,2 55315  70.0024  20.0886 0002918 262.1453  97.9375 14.98326739 66588,6950.203,96.107,574.096,570.04,0.0
55315.0,STARLINK-4623,PAYLOAD,2024-03-27 20:38:00,14.98308401,0.0003045,70.0015,19.2455,258.665,101.4167,-0.00017469,-2.176e-05,0.0,0 STARLINK-4623,1 55315U 23010AY  24087.85972687 -.00002176  00000-0 -17469-3 0  9996,2 55315  70.0015  19.2455 0003045 258.6650 101.4167 14.98308401 66341,6950.26,96.108,574.241,570.008,0.0
55315.0,STARLINK-4623,PAYLOAD,2024-03-27 22:14:08,14.98308764,0.0002991,70.0015,19.0778,258.191,101.8914,-0.00016113,-2.014e-05,0.0,0 STARLINK-4623,1 55315U 23010AY  24087.92648716 -.00002014  00000-0 -16113-3 0  9993,2 55315  70.0015  19.0778 0002991 258.1910 101.8914 14.98308764 66649,6950.259,96.108,574.202,570.045,0.0
55315.0,STARLINK-4623,PAYLOAD,2024-03-28 04:38:40,14.98313832,0.0002743,70.0015,18.4051,258.9314,101.1537,-9.7626e-05,-1.257e-05,0.0,0 STARLINK-4623,1 55315U 23010AY  24088.19352534 -.00001257  00000-0 -97626-4 0  9990,2 55315  70.0015  18.4051 0002743 258.9314 101.1537 14.98313832 66395,6950.243,96.108,574.014,570.201,0.0
55315.0,STARLINK-4623,PAYLOAD,2024-03-28 06:14:48,14.9831476,0.0002737,70.0015,18.2362,257.0941,102.9912,-8.8816e-05,-1.152e-05,0.0,0 STARLINK-4623,1 55315U 23010AY  24088.26028486 -.00001152  00000-0 -88816-4 0  9999,2 55315  70.0015  18.2362 0002737 257.0941 102.9912 14.98314760 66697,6950.24,96.108,574.007,570.203,0.0
55315.0,STARLINK-4623,PAYLOAD,2024-03-28 22:16:08,14.98336259,0.000316,70.0009,16.5534,268.6726,91.4071,-6.055e-05,-8.16e-06,0.0,0 STARLINK-4623,1 55315U 23010AY  24088.92787070 -.00000816  00000-0 -60550-4 0  9994,2 55315  70.0009  16.5534 0003160 268.6726  91.4071 14.98336259 66798,6950.174,96.107,574.235,569.842,0.0
55315.0,STARLINK-4623,PAYLOAD,2024-03-29 04:40:39,14.98347476,0.0002333,70.0023,15.8795,260.0983,99.9912,-1.5313e-05,-2.76e-06,0.0,0 STARLINK-4623,1 55315U 23010AY  24089.19490145 -.00000276  00000-0 -15313-4 0  9995,2 55315  70.0023  15.8795 0002333 260.0983  99.9912 14.98347476 66540,6950.139,96.106,573.625,570.382,0.0
55315.0,STARLINK-4623,PAYLOAD,2024-03-29 22:18:08,14.98328265,0.0002621,70.0027,14.0268,271.4578,88.6281,0.00028312,3.287e-05,0.0,0 STARLINK-4623,1 55315U 23010AY  24089.92926220  .00003287  00000-0  28312-3 0  9999,2 55315  70.0027  14.0268 0002621 271.4578  88.6281 14.98328265 66949,6950.198,96.107,573.885,570.242,0.0
55315.0,STARLINK-4623,PAYLOAD,2024-03-30 04:42:40,14.9833243,0.0002757,70.0012,13.3551,264.9553,95.1291,0.00021208,2.439e-05,0.0,0 STARLINK-4623,1 55315U 23010AY  24090.19630019  .00002439  00000-0  21208-3 0  9993,2 55315  70.0012  13.3551 0002757 264.9553  95.1291 14.98332430 66695,6950.185,96.107,573.967,570.134,0.0
55315.0,STARLINK-4623,PAYLOAD,2024-03-30 12:43:21,14.98329737,0.0002629,70.0021,12.5115,272.363,87.7228,0.00010275,1.133e-05,0.0,0 STARLINK-4623,1 55315U 23010AY  24090.53010488  .00001133  00000-0  10275-3 0  9995,2 55315  70.0021  12.5115 0002629 272.3630  87.7228 14.98329737 67031,6950.194,96.107,573.886,570.231,0.0
55315.0,STARLINK-4623,PAYLOAD,2024-03-30 20:44:01,14.98337894,0.0002515,70.0022,11.6704,271.3964,88.6907,-0.00013836,-1.744e-05,0.0,0 STARLINK-4623,1 55315U 23010AY  24090.86390551 -.00001744  00000-0 -13836-3 0  9999,2 55315  70.0022  11.6704 0002515 271.3964  88.6907 14.98337894 66798,6950.168,96.106,573.781,570.286,0.0
55315.0,STARLINK-4623,PAYLOAD,2024-03-30 22:20:09,14.98337836,0.0002585,70.0019,11.5022,270.171,89.9153,-0.00014766,-1.855e-05,0.0,0 STARLINK-4623,1 55315U 23010AY  24090.93066519 -.00001855  00000-0 -14766-3 0  9997,2 55315  70.0019  11.5022 0002585 270.1710  89.9153 14.98337836 67096,6950.169,96.106,573.83,570.237,0.0
55315.0,STARLINK-4623,PAYLOAD,2024-03-31 04:44:41,14.98336532,0.0002678,70.0014,10.8289,269.1122,90.973,-0.00014994,-1.882e-05,0.0,0 STARLINK-4623,1 55315U 23010AY  24091.19770465 -.00001882  00000-0 -14994-3 0  9991,2 55315  70.0014  10.8289 0002678 269.1122  90.9730 14.98336532 67136,6950.173,96.107,573.899,570.176,0.0
